start=new Date('2022-11-19T00:00:00.000Z').valueOf();
sats=[{"EPHEMERIS_TYPE":"0","MEAN_MOTION_DOT":"0.00000714","BSTAR":"0.00006295900000","RCS_SIZE":"LARGE","SITE":"AFETR","APOAPSIS":"540.792","ELEMENT_SET_NO":"999","CLASSIFICATION_TYPE":"U","PERIOD":"95.437","FILE":"3662753","REF_FRAME":"TEME","MEAN_ANOMALY":"308.5321","PERIAPSIS":"538.685","OBJECT_ID":"2022-086BC","ARG_OF_PERICENTER":"51.5808","TLE_LINE2":"2 53292  53.2174 202.5414 0001523  51.5808 308.5321 15.08842124 18973","INCLINATION":"53.2174","TIME_SYSTEM":"UTC","EPOCH":"2022-11-18T16:31:34.188960","OBJECT_TYPE":"PAYLOAD","GP_ID":"218168843","DECAY_DATE":null,"MEAN_MOTION":"15.08842124","MEAN_MOTION_DDOT":"0.0000000000000","LAUNCH_DATE":"2022-07-24","COUNTRY_CODE":"US","TLE_LINE1":"1 53292U 22086BC  22322.68859015  .00000714  00000-0  62959-4 0  9999","MEAN_ELEMENT_THEORY":"SGP4","REV_AT_EPOCH":"1897","RA_OF_ASC_NODE":"202.5414","CENTER_NAME":"EARTH","SEMIMAJOR_AXIS":"6917.874","NORAD_CAT_ID":"53292","ECCENTRICITY":"0.00015230","OBJECT_NAME":"STARLINK-4159"},{"TLE_LINE1":"1 53293U 22086BD  22322.06391561 -.00000857  00000-0 -35752-4 0  9990","COUNTRY_CODE":"US","MEAN_ELEMENT_THEORY":"SGP4","LAUNCH_DATE":"2022-07-24","NORAD_CAT_ID":"53293","SEMIMAJOR_AXIS":"6917.855","ECCENTRICITY":"0.00014320","OBJECT_NAME":"STARLINK-4148","RA_OF_ASC_NODE":"195.3640","REV_AT_EPOCH":"1901","CENTER_NAME":"EARTH","DECAY_DATE":null,"MEAN_MOTION":"15.08848345","GP_ID":"218138898","OBJECT_TYPE":"PAYLOAD","EPOCH":"2022-11-18T01:32:02.308704","MEAN_MOTION_DDOT":"0.0000000000000","OBJECT_ID":"2022-086BD","REF_FRAME":"TEME","PERIAPSIS":"538.729","MEAN_ANOMALY":"286.9473","TLE_LINE2":"2 53293  53.2145 195.3640 0001432  73.1676 286.9473 15.08848345 19018","TIME_SYSTEM":"UTC","INCLINATION":"53.2145","ARG_OF_PERICENTER":"73.1676","RCS_SIZE":"LARGE","BSTAR":"-0.00003575200000","MEAN_MOTION_DOT":"-0.00000857","EPHEMERIS_TYPE":"0","PERIOD":"95.437","ELEMENT_SET_NO":"999","CLASSIFICATION_TYPE":"U","FILE":"3662515","SITE":"AFETR","APOAPSIS":"540.711"},{"ARG_OF_PERICENTER":"69.4900","TLE_LINE2":"2 53294  53.2181 195.7927 0001381  69.4900 290.6240 15.08837466 19041","INCLINATION":"53.2181","TIME_SYSTEM":"UTC","REF_FRAME":"TEME","MEAN_ANOMALY":"290.6240","PERIAPSIS":"538.798","OBJECT_ID":"2022-086BE","SITE":"AFETR","APOAPSIS":"540.708","ELEMENT_SET_NO":"999","CLASSIFICATION_TYPE":"U","PERIOD":"95.438","FILE":"3662515","MEAN_MOTION_DOT":"0.00000507","EPHEMERIS_TYPE":"0","RCS_SIZE":"LARGE","BSTAR":"0.00004996100000","RA_OF_ASC_NODE":"195.7927","REV_AT_EPOCH":"1904","CENTER_NAME":"EARTH","NORAD_CAT_ID":"53294","SEMIMAJOR_AXIS":"6917.888","ECCENTRICITY":"0.00013810","OBJECT_NAME":"STARLINK-4146","LAUNCH_DATE":"2022-07-24","COUNTRY_CODE":"US","TLE_LINE1":"1 53294U 22086BE  22321.96456154  .00000507  00000-0  49961-4 0  9996","MEAN_ELEMENT_THEORY":"SGP4","MEAN_MOTION_DDOT":"0.0000000000000","EPOCH":"2022-11-17T23:08:58.117056","OBJECT_TYPE":"PAYLOAD","GP_ID":"218139394","DECAY_DATE":null,"MEAN_MOTION":"15.08837466"},{"EPOCH":"2022-11-18T18:18:49.170240","GP_ID":"218169027","OBJECT_TYPE":"PAYLOAD","DECAY_DATE":null,"MEAN_MOTION":"15.08847721","MEAN_MOTION_DDOT":"0.0000000000000","LAUNCH_DATE":"2022-08-10","COUNTRY_CODE":"US","TLE_LINE1":"1 53388U 22097A   22322.76306910  .00001490  00000-0  11169-3 0  9995","MEAN_ELEMENT_THEORY":"SGP4","RA_OF_ASC_NODE":"142.2404","REV_AT_EPOCH":"1664","CENTER_NAME":"EARTH","SEMIMAJOR_AXIS":"6917.857","NORAD_CAT_ID":"53388","ECCENTRICITY":"0.00026980","OBJECT_NAME":"STARLINK-4522","EPHEMERIS_TYPE":"0","MEAN_MOTION_DOT":"0.00001490","RCS_SIZE":"LARGE","BSTAR":"0.00011169000000","SITE":"AFETR","APOAPSIS":"541.588","CLASSIFICATION_TYPE":"U","ELEMENT_SET_NO":"999","PERIOD":"95.437","FILE":"3662753","REF_FRAME":"TEME","MEAN_ANOMALY":"319.1448","PERIAPSIS":"537.855","OBJECT_ID":"2022-097A","ARG_OF_PERICENTER":"40.9747","TLE_LINE2":"2 53388  53.2162 142.2404 0002698  40.9747 319.1448 15.08847721 16641","INCLINATION":"53.2162","TIME_SYSTEM":"UTC"},{"SEMIMAJOR_AXIS":"6917.882","NORAD_CAT_ID":"53389","ECCENTRICITY":"0.00023980","OBJECT_NAME":"STARLINK-4523","RA_OF_ASC_NODE":"143.4567","REV_AT_EPOCH":"1642","CENTER_NAME":"EARTH","TLE_LINE1":"1 53389U 22097B   22322.49076314 -.00000381  00000-0 -58063-5 0  9994","COUNTRY_CODE":"US","MEAN_ELEMENT_THEORY":"SGP4","LAUNCH_DATE":"2022-08-10","MEAN_MOTION_DDOT":"0.0000000000000","DECAY_DATE":null,"MEAN_MOTION":"15.08839379","OBJECT_TYPE":"PAYLOAD","GP_ID":"218138740","EPOCH":"2022-11-18T11:46:41.935296","TLE_LINE2":"2 53389  53.2165 143.4567 0002398  44.9599 315.1587 15.08839379 16420","TIME_SYSTEM":"UTC","INCLINATION":"53.2165","ARG_OF_PERICENTER":"44.9599","OBJECT_ID":"2022-097B","REF_FRAME":"TEME","PERIAPSIS":"538.088","MEAN_ANOMALY":"315.1587","PERIOD":"95.438","ELEMENT_SET_NO":"999","CLASSIFICATION_TYPE":"U","FILE":"3662515","SITE":"AFETR","APOAPSIS":"541.406","RCS_SIZE":"LARGE","BSTAR":"-0.00000580630000","EPHEMERIS_TYPE":"0","MEAN_MOTION_DOT":"-0.00000381"},{"LAUNCH_DATE":"2022-08-10","COUNTRY_CODE":"US","TLE_LINE1":"1 53390U 22097C   22322.75941811 -.00000198  00000-0  56538-5 0  9998","MEAN_ELEMENT_THEORY":"SGP4","RA_OF_ASC_NODE":"142.2534","REV_AT_EPOCH":"1661","CENTER_NAME":"EARTH","SEMIMAJOR_AXIS":"6917.893","NORAD_CAT_ID":"53390","OBJECT_NAME":"STARLINK-4517","ECCENTRICITY":"0.00025590","EPOCH":"2022-11-18T18:13:33.724704","GP_ID":"218169678","OBJECT_TYPE":"PAYLOAD","DECAY_DATE":null,"MEAN_MOTION":"15.08835849","MEAN_MOTION_DDOT":"0.0000000000000","REF_FRAME":"TEME","MEAN_ANOMALY":"315.1949","PERIAPSIS":"537.988","OBJECT_ID":"2022-097C","ARG_OF_PERICENTER":"44.9250","TLE_LINE2":"2 53390  53.2181 142.2534 0002559  44.9250 315.1949 15.08835849 16615","INCLINATION":"53.2181","TIME_SYSTEM":"UTC","MEAN_MOTION_DOT":"-0.00000198","EPHEMERIS_TYPE":"0","RCS_SIZE":"LARGE","BSTAR":"0.00000565380000","SITE":"AFETR","APOAPSIS":"541.528","ELEMENT_SET_NO":"999","CLASSIFICATION_TYPE":"U","PERIOD":"95.438","FILE":"3662753"},{"MEAN_MOTION":"15.08843018","DECAY_DATE":null,"GP_ID":"218139071","OBJECT_TYPE":"PAYLOAD","EPOCH":"2022-11-18T11:41:23.193600","MEAN_MOTION_DDOT":"0.0000000000000","MEAN_ELEMENT_THEORY":"SGP4","TLE_LINE1":"1 53391U 22097D   22322.48707400  .00001826  00000-0  13277-3 0  9992","COUNTRY_CODE":"US","LAUNCH_DATE":"2022-08-10","NORAD_CAT_ID":"53391","SEMIMAJOR_AXIS":"6917.871","ECCENTRICITY":"0.00021550","OBJECT_NAME":"STARLINK-4521","CENTER_NAME":"EARTH","RA_OF_ASC_NODE":"143.4768","REV_AT_EPOCH":"1642","BSTAR":"0.00013277000000","RCS_SIZE":"LARGE","MEAN_MOTION_DOT":"0.00001826","EPHEMERIS_TYPE":"0","FILE":"3662515","PERIOD":"95.437","CLASSIFICATION_TYPE":"U","ELEMENT_SET_NO":"999","APOAPSIS":"541.227","SITE":"AFETR","OBJECT_ID":"2022-097D","PERIAPSIS":"538.245","MEAN_ANOMALY":"315.7208","REF_FRAME":"TEME","TIME_SYSTEM":"UTC","INCLINATION":"53.2178","TLE_LINE2":"2 53391  53.2178 143.4768 0002155  44.3957 315.7208 15.08843018 16424","ARG_OF_PERICENTER":"44.3957"},{"MEAN_MOTION_DDOT":"0.0000000000000","DECAY_DATE":null,"MEAN_MOTION":"15.08819503","EPOCH":"2022-11-18T21:03:07.631424","GP_ID":"218168686","OBJECT_TYPE":"PAYLOAD","SEMIMAJOR_AXIS":"6917.943","OBJECT_NAME":"STARLINK-4535","NORAD_CAT_ID":"53392","ECCENTRICITY":"0.00028630","RA_OF_ASC_NODE":"141.7236","REV_AT_EPOCH":"1648","CENTER_NAME":"EARTH","COUNTRY_CODE":"US","TLE_LINE1":"1 53392U 22097E   22322.87717166 -.00002670  00000-0 -14977-3 0  9994","MEAN_ELEMENT_THEORY":"SGP4","LAUNCH_DATE":"2022-08-10","CLASSIFICATION_TYPE":"U","ELEMENT_SET_NO":"999","PERIOD":"95.439","FILE":"3662753","SITE":"AFETR","APOAPSIS":"541.789","BSTAR":"-0.00014977000000","RCS_SIZE":"LARGE","EPHEMERIS_TYPE":"0","MEAN_MOTION_DOT":"-0.00002670","TLE_LINE2":"2 53392  53.2174 141.7236 0002863   2.1793 357.9211 15.08819503 16488","INCLINATION":"53.2174","TIME_SYSTEM":"UTC","ARG_OF_PERICENTER":"2.1793","OBJECT_ID":"2022-097E","REF_FRAME":"TEME","MEAN_ANOMALY":"357.9211","PERIAPSIS":"537.827"},{"SEMIMAJOR_AXIS":"6917.924","NORAD_CAT_ID":"53393","ECCENTRICITY":"0.00025810","OBJECT_NAME":"STARLINK-4530","CENTER_NAME":"EARTH","RA_OF_ASC_NODE":"141.7030","REV_AT_EPOCH":"1648","MEAN_ELEMENT_THEORY":"SGP4","COUNTRY_CODE":"US","TLE_LINE1":"1 53393U 22097F   22322.88086127  .00001076  00000-0  85748-4 0  9994","LAUNCH_DATE":"2022-08-10","MEAN_MOTION_DDOT":"0.0000000000000","MEAN_MOTION":"15.08825654","DECAY_DATE":null,"EPOCH":"2022-11-18T21:08:26.413728","OBJECT_TYPE":"PAYLOAD","GP_ID":"218168851","INCLINATION":"53.2172","TIME_SYSTEM":"UTC","TLE_LINE2":"2 53393  53.2172 141.7030 0002581  35.3130 324.8033 15.08825654 16488","ARG_OF_PERICENTER":"35.3130","OBJECT_ID":"2022-097F","MEAN_ANOMALY":"324.8033","PERIAPSIS":"538.004","REF_FRAME":"TEME","FILE":"3662753","ELEMENT_SET_NO":"999","CLASSIFICATION_TYPE":"U","PERIOD":"95.438","APOAPSIS":"541.575","SITE":"AFETR","BSTAR":"0.00008574800000","RCS_SIZE":"LARGE","EPHEMERIS_TYPE":"0","MEAN_MOTION_DOT":"0.00001076"},{"OBJECT_ID":"2022-097G","PERIAPSIS":"538.541","MEAN_ANOMALY":"308.7887","REF_FRAME":"TEME","TIME_SYSTEM":"UTC","INCLINATION":"53.2164","TLE_LINE2":"2 53394  53.2164 131.9363 0001791  51.3265 308.7887 15.08828573 16615","ARG_OF_PERICENTER":"51.3265","RCS_SIZE":"LARGE","BSTAR":"0.00011975000000","EPHEMERIS_TYPE":"0","MEAN_MOTION_DOT":"0.00001618","FILE":"3662753","PERIOD":"95.438","CLASSIFICATION_TYPE":"U","ELEMENT_SET_NO":"999","APOAPSIS":"541.019","SITE":"AFETR","MEAN_ELEMENT_THEORY":"SGP4","TLE_LINE1":"1 53394U 22097G   22322.77598380  .00001618  00000-0  11975-3 0  9994","COUNTRY_CODE":"US","LAUNCH_DATE":"2022-08-10","SEMIMAJOR_AXIS":"6917.915","ECCENTRICITY":"0.00017910","NORAD_CAT_ID":"53394","OBJECT_NAME":"STARLINK-4544","CENTER_NAME":"EARTH","REV_AT_EPOCH":"1661","RA_OF_ASC_NODE":"131.9363","MEAN_MOTION":"15.08828573","DECAY_DATE":null,"OBJECT_TYPE":"PAYLOAD","GP_ID":"218169359","EPOCH":"2022-11-18T18:37:25.000320","MEAN_MOTION_DDOT":"0.0000000000000"}];
